[{"OBJECT_NAME":"ZHUHAI-1 03C","OBJECT_ID":"2019-060D","EPOCH":"2026-03-09T23:14:25.268928","MEAN_MOTION":15.71109528,"ECCENTRICITY":0.00111308,"INCLINATION":97.5515,"RA_OF_ASC_NODE":231.2826,"ARG_OF_PERICENTER":267.4607,"MEAN_ANOMALY":92.5381,"EPHEMERIS_TYPE":0,"CLASSIFICATION_TYPE":"U","NORAD_CAT_ID":44537,"ELEMENT_SET_NO":999,"REV_AT_EPOCH":36152,"BSTAR":0.00082474362,"MEAN_MOTION_DOT":0.00104963,"MEAN_MOTION_DDOT":0},{"OBJECT_NAME":"STARLINK-36696","OBJECT_ID":"2026-022D","EPOCH":"2026-03-09T20:23:52.732032","MEAN_MOTION":15.74292379,"ECCENTRICITY":0.00013435,"INCLINATION":97.2839,"RA_OF_ASC_NODE":102.8273,"ARG_OF_PERICENTER":223.2078,"MEAN_ANOMALY":136.9082,"EPHEMERIS_TYPE":0,"CLASSIFICATION_TYPE":"U","NORAD_CAT_ID":67651,"ELEMENT_SET_NO":999,"REV_AT_EPOCH":557,"BSTAR":-0.0014101124,"MEAN_MOTION_DOT":-0.00197849,"MEAN_MOTION_DDOT":0}]
